STARLINK-35444          
1 66511U 25263AC  25325.66672454 -.01125853  42209-3 -17432-2 0  9990
2 66511  43.0007 252.5046 0002175 258.6878 114.7504 16.03283905  2245
STARLINK-35366          
1 66512U 25263AD  25325.66672454 -.01129049  42552-3 -17213-2 0  9990
2 66512  43.0005 252.4952 0002095 258.1982 118.8515 16.03542628  2248
STARLINK-35692          
1 66513U 25263AE  25325.66672454 -.01133410  42682-3 -17651-2 0  9998
2 66513  43.0008 252.5084 0002111 259.9229 111.9650 16.03188374  2249
SENTINEL-6B             
1 66514U 25264A   25325.85827541  .00000969  00000+0  41752-2 0  9992
2 66514  66.0406 206.1161 0011467 270.6891  89.2813 12.85876841   602
SZ-21 MODULE            
1 66515U 25246C   25325.82031694  .00026158  00000+0  30435-3 0  9991
2 66515  41.4748 143.5222 0004562 114.6347 245.4967 15.61094701  1175
SHIJIAN-30A             
1 66545U 25266A   25325.85207977  .00007592  00000+0  40965-3 0  9998
2 66545  51.7998  70.6968 0012784 282.0289  77.9254 15.15615061   416
SHIJIAN-30B             
1 66546U 25266B   25325.85251992  .00007611  00000+0  41365-3 0  9992
2 66546  51.7981  70.6997 0010480 281.2942  78.6857 15.15372211   413
SHIJIAN-30C             
1 66547U 25266C   25325.85293699  .00012988  00000+0  69845-3 0  9999
2 66547  51.7990  70.7018 0011250 274.7404  85.2288 15.15132765   415
CZ-2C R/B               
1 66548U 25266D   25325.82829844  .00014878  00000+0  47015-3 0  9999
2 66548  52.0562  70.8547 0085441 101.8601 259.1982 15.29525229   414
TJS-21                  
1 66586U 25269A   25325.52968620  .00002832  00000+0  52022-3 0  9998
2 66586  51.0457 174.8337 7517257 224.9550  41.7928  2.00980886    12
CZ-3B R/B               
1 66587U 25269B   25325.52943694  .00006929 -86139-6  51894-3 0  9995
2 66587  51.3636 174.5119 7521144 224.9566  41.7220  2.01465750    22
